[{"OBJECT_NAME":"STARLINK-4299","OBJECT_ID":"2022-083AS","EPOCH":"2026-03-09T12:17:40.992864","MEAN_MOTION":15.08835916,"ECCENTRICITY":0.00012457,"INCLINATION":53.2178,"RA_OF_ASC_NODE":159.8301,"ARG_OF_PERICENTER":76.6773,"MEAN_ANOMALY":283.4358,"EPHEMERIS_TYPE":0,"CLASSIFICATION_TYPE":"U","NORAD_CAT_ID":53172,"ELEMENT_SET_NO":999,"REV_AT_EPOCH":20139,"BSTAR":4.1966994e-5,"MEAN_MOTION_DOT":3.8e-6,"MEAN_MOTION_DDOT":0},{"OBJECT_NAME":"METEOR 2-5 DEB","OBJECT_ID":"1979-095D","EPOCH":"2026-03-07T02:20:18.720096","MEAN_MOTION":15.07655153,"ECCENTRICITY":0.00106351,"INCLINATION":81.1653,"RA_OF_ASC_NODE":357.8549,"ARG_OF_PERICENTER":34.5561,"MEAN_ANOMALY":325.6353,"EPHEMERIS_TYPE":0,"CLASSIFICATION_TYPE":"U","NORAD_CAT_ID":28555,"ELEMENT_SET_NO":999,"REV_AT_EPOCH":23235,"BSTAR":0.011673296,"MEAN_MOTION_DOT":0.00182479,"MEAN_MOTION_DDOT":0}]
